STARLINK-1665
1 26356C 20062AJ  21325.17761798  .00000442  00000-0  29630-4 0  3250
2 26356  53.0521 222.4423 0002017  73.2911  86.7789 15.06408015    10
